[{"OBJECT_NAME":"STARLINK-5627","OBJECT_ID":"2023-013AK","EPOCH":"2025-10-09T15:38:16.977696","MEAN_MOTION":15.02534408,"ECCENTRICITY":0.00027256,"INCLINATION":43.0054,"RA_OF_ASC_NODE":40.6558,"ARG_OF_PERICENTER":283.6575,"MEAN_ANOMALY":76.3964,"EPHEMERIS_TYPE":0,"CLASSIFICATION_TYPE":"U","NORAD_CAT_ID":55364,"ELEMENT_SET_NO":999,"REV_AT_EPOCH":14899,"BSTAR":7.841645e-6,"MEAN_MOTION_DOT":-9.8e-7,"MEAN_MOTION_DDOT":0},{"OBJECT_NAME":"STARLINK-5639","OBJECT_ID":"2023-013AL","EPOCH":"2025-10-09T17:50:24.009216","MEAN_MOTION":15.02539029,"ECCENTRICITY":0.00010754,"INCLINATION":43.0032,"RA_OF_ASC_NODE":53.4785,"ARG_OF_PERICENTER":274.954,"MEAN_ANOMALY":85.118,"EPHEMERIS_TYPE":0,"CLASSIFICATION_TYPE":"U","NORAD_CAT_ID":55365,"ELEMENT_SET_NO":999,"REV_AT_EPOCH":14885,"BSTAR":2.1271913e-5,"MEAN_MOTION_DOT":8.4e-7,"MEAN_MOTION_DDOT":0},{"OBJECT_NAME":"STARLINK-5654","OBJECT_ID":"2023-013AM","EPOCH":"2025-10-10T06:40:09.816960","MEAN_MOTION":15.02534894,"ECCENTRICITY":0.000104,"INCLINATION":43.0041,"RA_OF_ASC_NODE":24.6058,"ARG_OF_PERICENTER":267.3016,"MEAN_ANOMALY":92.7707,"EPHEMERIS_TYPE":0,"CLASSIFICATION_TYPE":"U","NORAD_CAT_ID":55366,"ELEMENT_SET_NO":999,"REV_AT_EPOCH":14923,"BSTAR":-1.203911e-6,"MEAN_MOTION_DOT":-2.2e-6,"MEAN_MOTION_DDOT":0},{"OBJECT_NAME":"STARLINK-5635","OBJECT_ID":"2023-013AN","EPOCH":"2025-10-10T07:04:05.902464","MEAN_MOTION":15.02556305,"ECCENTRICITY":0.00018963,"INCLINATION":43.0066,"RA_OF_ASC_NODE":24.7269,"ARG_OF_PERICENTER":267.6259,"MEAN_ANOMALY":92.4367,"EPHEMERIS_TYPE":0,"CLASSIFICATION_TYPE":"U","NORAD_CAT_ID":55367,"ELEMENT_SET_NO":999,"REV_AT_EPOCH":14923,"BSTAR":0.00019414033,"MEAN_MOTION_DOT":2.421e-5,"MEAN_MOTION_DDOT":0},{"OBJECT_NAME":"STARLINK-5625","OBJECT_ID":"2023-013AP","EPOCH":"2025-10-10T07:56:43.018944","MEAN_MOTION":15.02535351,"ECCENTRICITY":0.00013736,"INCLINATION":43.0065,"RA_OF_ASC_NODE":24.1502,"ARG_OF_PERICENTER":269.8529,"MEAN_ANOMALY":90.2156,"EPHEMERIS_TYPE":0,"CLASSIFICATION_TYPE":"U","NORAD_CAT_ID":55368,"ELEMENT_SET_NO":999,"REV_AT_EPOCH":14924,"BSTAR":2.1022784e-5,"MEAN_MOTION_DOT":8.0e-7,"MEAN_MOTION_DDOT":0},{"OBJECT_NAME":"STARLINK-5644","OBJECT_ID":"2023-013AQ","EPOCH":"2025-10-09T01:51:31.108032","MEAN_MOTION":15.0253767,"ECCENTRICITY":0.00014005,"INCLINATION":43.0042,"RA_OF_ASC_NODE":57.0813,"ARG_OF_PERICENTER":269.3119,"MEAN_ANOMALY":90.7563,"EPHEMERIS_TYPE":0,"CLASSIFICATION_TYPE":"U","NORAD_CAT_ID":55369,"ELEMENT_SET_NO":999,"REV_AT_EPOCH":14875,"BSTAR":7.8951428e-5,"MEAN_MOTION_DOT":8.63e-6,"MEAN_MOTION_DDOT":0},{"OBJECT_NAME":"STARLINK-5027","OBJECT_ID":"2023-013AR","EPOCH":"2025-10-09T16:19:28.682112","MEAN_MOTION":15.02539361,"ECCENTRICITY":0.00014885,"INCLINATION":43.0046,"RA_OF_ASC_NODE":53.8667,"ARG_OF_PERICENTER":266.7923,"MEAN_ANOMALY":93.275,"EPHEMERIS_TYPE":0,"CLASSIFICATION_TYPE":"U","NORAD_CAT_ID":55370,"ELEMENT_SET_NO":999,"REV_AT_EPOCH":14884,"BSTAR":-2.9414211e-5,"MEAN_MOTION_DOT":-6.01e-6,"MEAN_MOTION_DDOT":0},{"OBJECT_NAME":"STARLINK-5590","OBJECT_ID":"2023-013AS","EPOCH":"2025-10-10T07:55:57.856800","MEAN_MOTION":15.02535405,"ECCENTRICITY":0.00011063,"INCLINATION":43.0052,"RA_OF_ASC_NODE":50.1387,"ARG_OF_PERICENTER":262.4295,"MEAN_ANOMALY":97.6422,"EPHEMERIS_TYPE":0,"CLASSIFICATION_TYPE":"U","NORAD_CAT_ID":55371,"ELEMENT_SET_NO":999,"REV_AT_EPOCH":14986,"BSTAR":8.075758e-5,"MEAN_MOTION_DOT":8.87e-6,"MEAN_MOTION_DDOT":0},{"OBJECT_NAME":"STARLINK-5568","OBJECT_ID":"2023-013AT","EPOCH":"2025-10-09T08:09:38.159136","MEAN_MOTION":15.02533544,"ECCENTRICITY":0.0001288,"INCLINATION":43.0048,"RA_OF_ASC_NODE":55.6132,"ARG_OF_PERICENTER":267.4169,"MEAN_ANOMALY":92.6526,"EPHEMERIS_TYPE":0,"CLASSIFICATION_TYPE":"U","NORAD_CAT_ID":55372,"ELEMENT_SET_NO":999,"REV_AT_EPOCH":14879,"BSTAR":-8.2002e-6,"MEAN_MOTION_DOT":-3.14e-6,"MEAN_MOTION_DDOT":0},{"OBJECT_NAME":"STARLINK-5581","OBJECT_ID":"2023-013AU","EPOCH":"2025-10-09T18:14:22.190784","MEAN_MOTION":15.02538235,"ECCENTRICITY":0.00016921,"INCLINATION":43.0064,"RA_OF_ASC_NODE":53.5967,"ARG_OF_PERICENTER":265.2081,"MEAN_ANOMALY":94.8568,"EPHEMERIS_TYPE":0,"CLASSIFICATION_TYPE":"U","NORAD_CAT_ID":55373,"ELEMENT_SET_NO":999,"REV_AT_EPOCH":14885,"BSTAR":1.788762e-5,"MEAN_MOTION_DOT":3.8e-7,"MEAN_MOTION_DDOT":0},{"OBJECT_NAME":"STARLINK-5578","OBJECT_ID":"2023-013AV","EPOCH":"2025-10-10T08:00:45.578304","MEAN_MOTION":15.02537731,"ECCENTRICITY":0.00012236,"INCLINATION":43.0047,"RA_OF_ASC_NODE":50.17,"ARG_OF_PERICENTER":270.3573,"MEAN_ANOMALY":89.7129,"EPHEMERIS_TYPE":0,"CLASSIFICATION_TYPE":"U","NORAD_CAT_ID":55374,"ELEMENT_SET_NO":999,"REV_AT_EPOCH":14894,"BSTAR":3.3472515e-5,"MEAN_MOTION_DOT":2.49e-6,"MEAN_MOTION_DDOT":0},{"OBJECT_NAME":"STARLINK-5588","OBJECT_ID":"2023-013AW","EPOCH":"2025-10-09T11:01:55.240896","MEAN_MOTION":15.02528818,"ECCENTRICITY":0.0001129,"INCLINATION":43.0045,"RA_OF_ASC_NODE":54.7896,"ARG_OF_PERICENTER":266.2514,"MEAN_ANOMALY":93.8199,"EPHEMERIS_TYPE":0,"CLASSIFICATION_TYPE":"U","NORAD_CAT_ID":55375,"ELEMENT_SET_NO":999,"REV_AT_EPOCH":14881,"BSTAR":-7.2974e-5,"MEAN_MOTION_DOT":-1.189e-5,"MEAN_MOTION_DDOT":0},{"OBJECT_NAME":"STARLINK-5586","OBJECT_ID":"2023-013AX","EPOCH":"2025-10-10T07:08:55.725216","MEAN_MOTION":15.02534331,"ECCENTRICITY":0.00013315,"INCLINATION":43.0045,"RA_OF_ASC_NODE":24.752,"ARG_OF_PERICENTER":279.314,"MEAN_ANOMALY":80.7552,"EPHEMERIS_TYPE":0,"CLASSIFICATION_TYPE":"U","NORAD_CAT_ID":55376,"ELEMENT_SET_NO":999,"REV_AT_EPOCH":14923,"BSTAR":7.981945e-6,"MEAN_MOTION_DOT":-9.6e-7,"MEAN_MOTION_DDOT":0},{"OBJECT_NAME":"STARLINK-5567","OBJECT_ID":"2023-013AY","EPOCH":"2025-10-09T18:41:22.561440","MEAN_MOTION":15.02534678,"ECCENTRICITY":0.00015244,"INCLINATION":43.0054,"RA_OF_ASC_NODE":52.8827,"ARG_OF_PERICENTER":261.6556,"MEAN_ANOMALY":98.4114,"EPHEMERIS_TYPE":0,"CLASSIFICATION_TYPE":"U","NORAD_CAT_ID":55377,"ELEMENT_SET_NO":999,"REV_AT_EPOCH":14886,"BSTAR":3.5121681e-5,"MEAN_MOTION_DOT":2.71e-6,"MEAN_MOTION_DDOT":0},{"OBJECT_NAME":"STARLINK-5572","OBJECT_ID":"2023-013AZ","EPOCH":"2025-10-10T07:51:10.201824","MEAN_MOTION":15.02539188,"ECCENTRICITY":0.00012744,"INCLINATION":43.0047,"RA_OF_ASC_NODE":50.1193,"ARG_OF_PERICENTER":263.2481,"MEAN_ANOMALY":96.8217,"EPHEMERIS_TYPE":0,"CLASSIFICATION_TYPE":"U","NORAD_CAT_ID":55378,"ELEMENT_SET_NO":999,"REV_AT_EPOCH":14894,"BSTAR":4.9769365e-5,"MEAN_MOTION_DOT":4.69e-6,"MEAN_MOTION_DDOT":0},{"OBJECT_NAME":"STARLINK-5569","OBJECT_ID":"2023-013BA","EPOCH":"2025-10-09T09:16:35.906016","MEAN_MOTION":15.0253367,"ECCENTRICITY":0.0001465,"INCLINATION":43.0056,"RA_OF_ASC_NODE":55.1,"ARG_OF_PERICENTER":265.0626,"MEAN_ANOMALY":95.0049,"EPHEMERIS_TYPE":0,"CLASSIFICATION_TYPE":"U","NORAD_CAT_ID":55379,"ELEMENT_SET_NO":999,"REV_AT_EPOCH":14880,"BSTAR":1.4029e-5,"MEAN_MOTION_DOT":-1.4e-7,"MEAN_MOTION_DDOT":0}]
