STARLINK-5627           
1 55364U 23013AK  25282.65158539 -.00000098  00000+0  78416-5 0  9991
2 55364  43.0054  40.6558 0002725 283.6575  76.3964 15.02534408148999
STARLINK-5639           
1 55365U 23013AL  25282.74333344  .00000084  00000+0  21272-4 0  9992
2 55365  43.0032  53.4785 0001075 274.9540  85.1180 15.02539029148859
STARLINK-5654           
1 55366U 23013AM  25283.27789140 -.00000220  00000+0 -12039-5 0  9997
2 55366  43.0041  24.6058 0001040 267.3016  92.7707 15.02534894149236
STARLINK-5635           
1 55367U 23013AN  25283.29451276  .00002421  00000+0  19414-3 0  9991
2 55367  43.0066  24.7269 0001896 267.6259  92.4367 15.02556305149230
STARLINK-5625           
1 55368U 23013AP  25283.33105346  .00000080  00000+0  21023-4 0  9990
2 55368  43.0065  24.1502 0001373 269.8529  90.2156 15.02535351149249
STARLINK-5644           
1 55369U 23013AQ  25282.07744338  .00000863  00000+0  78951-4 0  9992
2 55369  43.0042  57.0813 0001400 269.3119  90.7563 15.02537670148754
STARLINK-5027           
1 55370U 23013AR  25282.68019308 -.00000601  00000+0 -29414-4 0  9995
2 55370  43.0046  53.8667 0001488 266.7923  93.2750 15.02539361148846
STARLINK-5590           
1 55371U 23013AS  25283.33053075  .00000887  00000+0  80758-4 0  9990
2 55371  43.0052  50.1387 0001106 262.4295  97.6422 15.02535405149867
STARLINK-5568           
1 55372U 23013AT  25282.34002499 -.00000314  00000+0 -82002-5 0  9997
2 55372  43.0048  55.6132 0001288 267.4169  92.6526 15.02533544148790
STARLINK-5581           
1 55373U 23013AU  25282.75997906  .00000038  00000+0  17888-4 0  9999
2 55373  43.0064  53.5967 0001692 265.2081  94.8568 15.02538235148859
STARLINK-5578           
1 55374U 23013AV  25283.33386086  .00000249  00000+0  33473-4 0  9998
2 55374  43.0047  50.1700 0001223 270.3573  89.7129 15.02537731148948
STARLINK-5588           
1 55375U 23013AW  25282.45966714 -.00001189  00000+0 -72974-4 0  9998
2 55375  43.0045  54.7896 0001129 266.2514  93.8199 15.02528818148812
STARLINK-5586           
1 55376U 23013AX  25283.29786719 -.00000096  00000+0  79819-5 0  9998
2 55376  43.0045  24.7520 0001331 279.3140  80.7552 15.02534331149231
STARLINK-5567           
1 55377U 23013AY  25282.77873335  .00000271  00000+0  35122-4 0  9994
2 55377  43.0054  52.8827 0001524 261.6556  98.4114 15.02534678148865
STARLINK-5572           
1 55378U 23013AZ  25283.32720141  .00000469  00000+0  49769-4 0  9994
2 55378  43.0047  50.1193 0001274 263.2481  96.8217 15.02539188148948
STARLINK-5569           
1 55379U 23013BA  25282.38652669 -.00000014  00000+0  14029-4 0  9997
2 55379  43.0056  55.1000 0001465 265.0626  95.0049 15.02533670148803
